IRIDIUM 156             
1 43576U 18061H   26060.46461189  .00000059  00000+0  13995-4 0  9998
2 43576  86.3925 101.7927 0002026  93.9497 266.1931 14.34217774397937
IRIDIUM 164             
1 43577U 18061J   26060.16651020  .00000055  00000+0  12459-4 0  9991
2 43577  86.3926 101.9559 0002207  98.7292 261.4154 14.34217918397934
IRIDIUM 159             
1 43578U 18061K   26060.48364027 -.00000092  00000+0 -39781-4 0  9995
2 43578  86.3925 101.7624 0002282  92.6898 267.4559 14.34217499397943
IRIDIUM 180             
1 43922U 19002A   26060.48313606  .00000044  00000+0  85778-5 0  9994
2 43922  86.3960  38.5961 0002319  86.6344 273.5117 14.34217613373553
IRIDIUM 176             
1 43923U 19002B   26060.43017205  .00001213  00000+0  18848-3 0  9997
2 43923  86.6078  38.5766 0002353  87.3790 272.7697 14.72258156383397
IRIDIUM 168             
1 43924U 19002C   26060.47679206  .00000296  00000+0  98764-4 0  9993
2 43924  86.3957  38.6733 0002124  85.5511 274.5927 14.34219026373535
IRIDIUM 173             
1 43925U 19002D   26060.46410207  .00000244  00000+0  80066-4 0  9996
2 43925  86.3961  38.5718 0002157  83.7612 276.3829 14.34220073373514
IRIDIUM 169             
1 43926U 19002E   26060.51036082  .00000343  00000+0  10565-3 0  9994
2 43926  86.4163  70.2110 0001658  72.9758 287.1622 14.38609786374748
IRIDIUM 172             
1 43927U 19002F   26060.45776550  .00000075  00000+0  19805-4 0  9998
2 43927  86.3959  38.5817 0002363  87.1000 273.0466 14.34217641373520
IRIDIUM 175             
1 43928U 19002G   26060.28964745  .00001199  00000+0  18619-3 0  9994
2 43928  86.1547 336.6435 0002105 112.5039 247.6400 14.72251102383369
IRIDIUM 171             
1 43929U 19002H   26060.43873708  .00000108  00000+0  31532-4 0  9999
2 43929  86.3964  38.8840 0002054  91.6237 268.5194 14.34217976373513
IRIDIUM 170             
1 43930U 19002J   26060.43635282  .00001222  00000+0  18987-3 0  9990
2 43930  86.6076  38.5770 0002597  91.7702 268.3812 14.72251303383409
IRIDIUM 167             
1 43931U 19002K   26060.43239414  .00000002  00000+0 -64366-5 0  9998
2 43931  86.3955  38.6142 0001732  88.7149 271.4246 14.34217725373513
IRIDIUM 181             
1 56726U 23068S   26060.50724449  .00000378  00000+0  10644-3 0  9999
2 56726  86.4464 101.8230 0002585  99.7352 260.4141 14.43312555146901
IRIDIUM 177             
1 56727U 23068T   26060.36281878  .00001002  00000+0  12838-3 0  9990
2 56727  86.1989  19.9740 0002464  81.9093 278.2408 14.80229717150419
IRIDIUM 174             
1 56728U 23068U   26060.42400171  .00001320  00000+0  20541-3 0  9990
2 56728  86.6085  38.7188 0002631  83.9234 276.2282 14.72253818150162
IRIDIUM 178             
1 56729U 23068V   26060.48711867  .00000647  00000+0  81727-4 0  9999
2 56729  86.6481  70.3710 0002264 102.4612 257.6863 14.80240078150436
IRIDIUM 179             
1 56730U 23068W   26060.48175263  .00000616  00000+0  77560-4 0  9991
2 56730  86.6718  79.0406 0002252  92.9467 267.2012 14.80236639150438
