OBJECT_NAME,OBJECT_ID,EPOCH,MEAN_MOTION,ECCENTRICITY,INCLINATION,RA_OF_ASC_NODE,ARG_OF_PERICENTER,MEAN_ANOMALY,EPHEMERIS_TYPE,CLASSIFICATION_TYPE,NORAD_CAT_ID,ELEMENT_SET_NO,REV_AT_EPOCH,BSTAR,MEAN_MOTION_DOT,MEAN_MOTION_DDOT
IRIDIUM 156,2018-061H,2026-03-01T11:09:02.467296,14.34217774,.0002026,86.3925,101.7927,93.9497,266.1931,0,U,43576,999,39793,.13995E-4,.59E-6,0
IRIDIUM 164,2018-061J,2026-03-01T03:59:46.481280,14.34217918,.00022074,86.3926,101.9559,98.7292,261.4154,0,U,43577,999,39793,.12458614E-4,.55E-6,0
IRIDIUM 159,2018-061K,2026-03-01T11:36:26.519328,14.34217499,.0002282,86.3925,101.7624,92.6898,267.4559,0,U,43578,999,39794,-.39781E-4,-.92E-6,0
IRIDIUM 180,2019-002A,2026-03-01T11:35:42.955584,14.34217613,.0002319,86.3960,38.5961,86.6344,273.5117,0,U,43922,999,37355,.85778E-5,.44E-6,0
IRIDIUM 176,2019-002B,2026-03-01T10:19:26.865120,14.72258156,.0002353,86.6078,38.5766,87.3790,272.7697,0,U,43923,999,38339,.18848E-3,.1213E-4,0
IRIDIUM 168,2019-002C,2026-03-01T11:26:34.833984,14.34219026,.0002124,86.3957,38.6733,85.5511,274.5927,0,U,43924,999,37353,.98764E-4,.296E-5,0
IRIDIUM 173,2019-002D,2026-03-01T11:08:18.418848,14.34220073,.0002157,86.3961,38.5718,83.7612,276.3829,0,U,43925,999,37351,.80066E-4,.244E-5,0
IRIDIUM 169,2019-002E,2026-03-01T12:14:55.174848,14.38609786,.0001658,86.4163,70.2110,72.9758,287.1622,0,U,43926,999,37474,.10565E-3,.343E-5,0
IRIDIUM 172,2019-002F,2026-03-01T10:59:10.939200,14.34217641,.0002363,86.3959,38.5817,87.1000,273.0466,0,U,43927,999,37352,.19805E-4,.75E-6,0
IRIDIUM 175,2019-002G,2026-03-01T06:57:05.539680,14.72251102,.0002105,86.1547,336.6435,112.5039,247.6400,0,U,43928,999,38336,.18619E-3,.1199E-4,0
IRIDIUM 171,2019-002H,2026-03-01T10:31:46.883712,14.34217976,.0002054,86.3964,38.8840,91.6237,268.5194,0,U,43929,999,37351,.31532E-4,.108E-5,0
IRIDIUM 170,2019-002J,2026-03-01T10:28:20.883648,14.72251303,.0002597,86.6076,38.5770,91.7702,268.3812,0,U,43930,999,38340,.18987E-3,.1222E-4,0
IRIDIUM 167,2019-002K,2026-03-01T10:22:38.853696,14.34217725,.0001732,86.3955,38.6142,88.7149,271.4246,0,U,43931,999,37351,-.64366E-5,.2E-7,0
IRIDIUM 181,2023-068S,2026-03-01T12:10:25.923936,14.43312555,.0002585,86.4464,101.8230,99.7352,260.4141,0,U,56726,999,14690,.10644E-3,.378E-5,0
IRIDIUM 177,2023-068T,2026-03-01T08:42:27.542592,14.80229717,.0002464,86.1989,19.9740,81.9093,278.2408,0,U,56727,999,15041,.12838E-3,.1002E-4,0
IRIDIUM 174,2023-068U,2026-03-01T10:10:33.747744,14.72253818,.0002631,86.6085,38.7188,83.9234,276.2282,0,U,56728,999,15016,.20541E-3,.132E-4,0
IRIDIUM 178,2023-068V,2026-03-01T11:41:27.053088,14.80240078,.0002264,86.6481,70.3710,102.4612,257.6863,0,U,56729,999,15043,.81727E-4,.647E-5,0
IRIDIUM 179,2023-068W,2026-03-01T11:33:43.427232,14.80236639,.0002252,86.6718,79.0406,92.9467,267.2012,0,U,56730,999,15043,.7756E-4,.616E-5,0